CELESTIS-02             
1 25160U 98007D   13057.67372605 -.00000087  00000-0  18996-4 0  1355
2 25160 107.9572 277.0776 0062708 177.4746 214.0757 14.21069646780271
CELESTIS-03             
1 26034U 99070C   13058.58473779  .00002457  00000-0  29064-3 0  7032
2 26034  98.2332 141.5839 0015700 324.2439  35.7722 14.85519598710420
AMC-14                  
1 32708U 08011A   13057.88141265  .00000151  00000-0  00000+0 0   763
2 32708  16.0280  89.5345 0048012 353.6079  60.5349  1.00274929 19451
